NORAD_CAT_ID,OBJECT_NAME,OBJECT_TYPE,EPOCH,MEAN_MOTION,ECCENTRICITY,INCLINATION,RA_OF_ASC_NODE,ARG_OF_PERICENTER,MEAN_ANOMALY,BSTAR,MEAN_MOTION_DOT,MEAN_MOTION_DDOT,TLE_LINE0,TLE_LINE1,TLE_LINE2,SEMIMAJOR_AXIS,PERIOD,APOGEE,PERIGEE,DECAYED
51815.0,STARLINK-3604,PAYLOAD,2022-06-19 14:00:01,15.08895191,0.0001412,53.2149,310.37,104.0245,245.765,-0.0029689,-0.00047299,0.0,0 STARLINK-3604,1 51815U 22017AZ  22170.58334491 -.00047299  00000-0 -29689-2 0  9990,2 51815  53.2149 310.3700 0001412 104.0245 245.7650 15.08895191  1304,6917.712,95.434,540.553,538.6,0.0
51815.0,STARLINK-3604,PAYLOAD,2022-06-19 22:00:00,15.08867559,0.0001181,53.2146,308.8739,97.9744,263.4627,-0.0053681,-0.00084779,0.0,0 STARLINK-3604,1 51815U 22017AZ  22170.91667824 -.00084779  00000-0 -53681-2 0  9999,2 51815  53.2146 308.8739 0001181  97.9744 263.4627 15.08867559  1311,6917.795999999999,95.436,540.4780000000002,538.844,0.0
51815.0,STARLINK-3604,PAYLOAD,2022-06-20 10:00:00,15.08802223,0.0001305,53.2152,306.628,109.0399,89.7549,0.00069335,0.00010753,0.0,0 STARLINK-3604,1 51815U 22017AZ  22171.41667824  .00010753  00000-0  69335-3 0  9998,2 51815  53.2152 306.6280 0001305 109.0399  89.7549 15.08802223 19154,6917.996,95.44,540.764,538.9580000000002,0.0
51815.0,STARLINK-3604,PAYLOAD,2022-06-20 14:00:01,15.08814285,0.0001244,53.215,305.8808,102.0544,282.5149,-0.0010786,-0.000174,0.0,0 STARLINK-3604,1 51815U 22017AZ  22171.58334491 -.00017400  00000-0 -10786-2 0  9990,2 51815  53.2150 305.8808 0001244 102.0544 282.5149 15.08814285  1304,6917.959,95.439,540.685,538.9630000000002,0.0
51815.0,STARLINK-3604,PAYLOAD,2022-06-20 22:00:00,15.08813893,0.0001143,53.2147,304.3847,96.003,300.1189,0.00076084,0.00011833,0.0,0 STARLINK-3604,1 51815U 22017AZ  22171.91667824  .00011833  00000-0  76084-3 0  9992,2 51815  53.2147 304.3847 0001143  96.0030 300.1189 15.08813893  1302,6917.96,95.439,540.616,539.034,0.0
51815.0,STARLINK-3604,PAYLOAD,2022-06-21 12:00:00,15.08848147,0.0001202,53.2153,301.7651,104.3619,222.0106,-0.00090032,-0.00014591,0.0,0 STARLINK-3604,1 51815U 22017AZ  22172.50001157 -.00014591  00000-0 -90032-3 0  9994,2 51815  53.2153 301.7651 0001202 104.3619 222.0106 15.08848147 19316,6917.855,95.437,540.552,538.889,0.0
51815.0,STARLINK-3604,PAYLOAD,2022-06-21 14:00:01,15.08846331,0.0001196,53.2151,301.3916,99.9553,319.3174,-0.00089197,-0.00014458,0.0,0 STARLINK-3604,1 51815U 22017AZ  22172.58334491 -.00014458  00000-0 -89197-3 0  9994,2 51815  53.2151 301.3916 0001196  99.9553 319.3174 15.08846331  1300,6917.861,95.437,540.553,538.899,0.0
51815.0,STARLINK-3604,PAYLOAD,2022-06-21 22:00:00,15.08861841,0.000114,53.2149,299.8952,94.6181,336.2449,-0.0020557,-0.00032874,0.0,0 STARLINK-3604,1 51815U 22017AZ  22172.91667824 -.00032874  00000-0 -20557-2 0  9996,2 51815  53.2149 299.8952 0001140  94.6181 336.2449 15.08861841  1302,6917.814,95.436,540.467,538.89,0.0
51815.0,STARLINK-3604,PAYLOAD,2022-06-22 14:00:01,15.08845061,0.0001234,53.2152,296.9022,99.2227,354.8313,-0.00090012,-0.00014587,0.0,0 STARLINK-3604,1 51815U 22017AZ  22173.58334491 -.00014587  00000-0 -90012-3 0  9996,2 51815  53.2152 296.9022 0001234  99.2227 354.8313 15.08845061 19477,6917.865,95.437,540.5840000000002,538.876,0.0
51815.0,STARLINK-3604,PAYLOAD,2022-06-22 22:00:00,15.08853267,0.0001153,53.2149,295.4056,96.0589,9.5856,-0.00017875,-3.133e-05,0.0,0 STARLINK-3604,1 51815U 22017AZ  22173.91667824 -.00003133  00000-0 -17875-3 0  9993,2 51815  53.2149 295.4056 0001153  96.0589   9.5856 15.08853267  1306,6917.84,95.437,540.502,538.9069999999998,0.0
51815.0,STARLINK-3604,PAYLOAD,2022-06-23 04:00:01,15.08832383,0.0001175,53.2151,294.2819,108.1025,276.3203,0.0027133,0.0004315,0.0,0 STARLINK-3604,1 51815U 22017AZ  22174.16668981  .00043150  00000-0  27133-2 0  9994,2 51815  53.2151 294.2819 0001175 108.1025 276.3203 15.08832383 19560,6917.904,95.438,540.582,538.956,0.0
51815.0,STARLINK-3604,PAYLOAD,2022-06-23 14:00:01,15.08837452,0.0001286999999999,53.2151,292.4129,99.8558,28.9805,-0.00082533,-0.00013398,0.0,0 STARLINK-3604,1 51815U 22017AZ  22174.58334491 -.00013398  00000-0 -82533-3 0  9995,2 51815  53.2151 292.4129 0001287  99.8558  28.9805 15.08837452 19623,6917.888000000001,95.438,540.644,538.863,0.0
51815.0,STARLINK-3604,PAYLOAD,2022-06-23 22:00:00,15.08848847,0.0001216,53.2147,290.9161,98.144,42.2752,-0.0007796,-0.00012677,0.0,0 STARLINK-3604,1 51815U 22017AZ  22174.91667824 -.00012677  00000-0 -77960-3 0  9998,2 51815  53.2147 290.9161 0001216  98.1440  42.2752 15.08848847  1307,6917.853,95.437,540.56,538.877,0.0
51815.0,STARLINK-3604,PAYLOAD,2022-06-24 04:00:00,15.08818187,0.000123,53.2148,289.7925,109.7872,309.3396,0.0030066,0.00047858,0.0,0 STARLINK-3604,1 51815U 22017AZ  22175.16667824  .00047858  00000-0  30066-2 0  9998,2 51815  53.2148 289.7925 0001230 109.7872 309.3396 15.08818187 19715,6917.946999999999,95.439,540.663,538.961,0.0
51815.0,STARLINK-3604,PAYLOAD,2022-06-24 14:00:01,15.08854347,0.0001258,53.2149,287.9236,100.7089,62.9079,-0.0011860999999999,-0.00019122,0.0,0 STARLINK-3604,1 51815U 22017AZ  22175.58334491 -.00019122  00000-0 -11861-2 0  9992,2 51815  53.2149 287.9236 0001258 100.7089  62.9079 15.08854347  1306,6917.837,95.437,540.572,538.831,0.0
51815.0,STARLINK-3604,PAYLOAD,2022-06-24 22:00:01,15.08856761,0.0001243,53.2154,286.4265,99.8528,75.4319,-0.0030314,-0.00048231,0.0,0 STARLINK-3604,1 51815U 22017AZ  22175.91668981 -.00048231  00000-0 -30314-2 0  9990,2 51815  53.2154 286.4265 0001243  99.8528  75.4319 15.08856761 19833,6917.829000000002,95.436,540.554,538.8340000000002,0.0
51815.0,STARLINK-3604,PAYLOAD,2022-06-25 12:00:00,15.08848266,0.0001307,53.2165,283.8081,103.3295,2.1725,-0.0015703,-0.00025198,0.0,0 STARLINK-3604,1 51815U 22017AZ  22176.50001157 -.00025198  00000-0 -15703-2 0  9994,2 51815  53.2165 283.8081 0001307 103.3295   2.1725 15.08848266 19913,6917.855,95.437,540.624,538.816,0.0
51815.0,STARLINK-3604,PAYLOAD,2022-06-25 14:00:01,15.0883651,0.0001295,53.2165,283.4344,99.976,98.4282,-0.00025709,-4.377e-05,0.0,0 STARLINK-3604,1 51815U 22017AZ  22176.58334491 -.00004377  00000-0 -25709-3 0  9996,2 51815  53.2165 283.4344 0001295  99.9760  98.4282 15.08836510  1303,6917.891,95.438,540.6519999999998,538.86,0.0
51815.0,STARLINK-3604,PAYLOAD,2022-06-25 22:00:00,15.08859209,0.0001219,53.2161,281.9374,100.2606,109.7298,-0.001574,-0.00025264,0.0,0 STARLINK-3604,1 51815U 22017AZ  22176.91667824 -.00025264  00000-0 -15740-2 0  9993,2 51815  53.2161 281.9374 0001219 100.2606 109.7298 15.08859209  1309,6917.821999999999,95.436,540.53,538.8430000000002,0.0
51815.0,STARLINK-3604,PAYLOAD,2022-06-26 06:00:00,15.08844567,0.0001291999999999,53.2163,280.4399,108.6702,112.9352,0.0023028,0.00036556,0.0,0 STARLINK-3604,1 51815U 22017AZ  22177.25001157  .00036556  00000-0  23028-2 0  9994,2 51815  53.2163 280.4399 0001292 108.6702 112.9352 15.08844567 20031,6917.866,95.437,540.625,538.8380000000002,0.0
51815.0,STARLINK-3604,PAYLOAD,2022-06-26 12:00:00,15.08845573,0.0001373,53.2164,279.319,100.0548,40.234,-0.00096028,-0.0001554,0.0,0 STARLINK-3604,1 51815U 22017AZ  22177.50001157 -.00015540  00000-0 -96028-3 0  9995,2 51815  53.2164 279.3190 0001373 100.0548  40.2340 15.08845573 20074,6917.863,95.437,540.678,538.779,0.0
51815.0,STARLINK-3604,PAYLOAD,2022-06-26 14:00:01,15.0883447,0.0001366,53.2164,278.9453,96.6633,136.5901,0.00053179,8.184e-05,0.0,0 STARLINK-3604,1 51815U 22017AZ  22177.58335648  .00008184  00000-0  53179-3 0  9992,2 51815  53.2164 278.9453 0001366  96.6633 136.5901 15.08834470  1309,6917.897,95.438,540.707,538.817,0.0
51815.0,STARLINK-3604,PAYLOAD,2022-06-26 22:00:00,15.08861901,0.0001296,53.2163,277.4483,97.7599,147.0145,-0.0016256,-0.00026081,0.0,0 STARLINK-3604,1 51815U 22017AZ  22177.91667824 -.00026081  00000-0 -16256-2 0  9995,2 51815  53.2163 277.4483 0001296  97.7599 147.0145 15.08861901  1306,6917.813,95.436,540.575,538.7819999999998,0.0
51815.0,STARLINK-3604,PAYLOAD,2022-06-27 06:00:00,15.08852598,0.0001429,53.2165,275.9508,104.5019,151.881,-0.00085297,-0.00013842,0.0,0 STARLINK-3604,1 51815U 22017AZ  22178.25001157 -.00013842  00000-0 -85297-3 0  9997,2 51815  53.2165 275.9508 0001429 104.5019 151.8810 15.08852598 20182,6917.842,95.437,540.695,538.7180000000002,0.0
51815.0,STARLINK-3604,PAYLOAD,2022-06-27 14:00:01,15.08823465,0.0001466,53.2166,274.4563,93.9438,174.0418,0.0005801,8.952e-05,0.0,0 STARLINK-3604,1 51815U 22017AZ  22178.58334491  .00008952  00000-0  58010-3 0  9990,2 51815  53.2166 274.4563 0001466  93.9438 174.0418 15.08823465  1300,6917.931,95.439,540.81,538.7819999999998,0.0
51815.0,STARLINK-3604,PAYLOAD,2022-06-27 22:00:00,15.08856245,0.0001374,53.2166,272.9592,95.6765,183.8894,-0.0018647,-0.00029855,0.0,0 STARLINK-3604,1 51815U 22017AZ  22178.91667824 -.00029855  00000-0 -18647-2 0  9994,2 51815  53.2166 272.9592 0001374  95.6765 183.8894 15.08856245  1303,6917.831,95.437,540.646,538.745,0.0
51815.0,STARLINK-3604,PAYLOAD,2022-06-28 14:00:01,15.08848912,0.0001369,53.217,269.9675,92.5562,210.2058,-0.0021991,-0.00035125,0.0,0 STARLINK-3604,1 51815U 22017AZ  22179.58334491 -.00035125  00000-0 -21991-2 0  9992,2 51815  53.2170 269.9675 0001369  92.5562 210.2058 15.08848912 20389,6917.853,95.437,540.665,538.771,0.0
51815.0,STARLINK-3604,PAYLOAD,2022-06-28 22:00:00,15.08842523,0.0001225,53.2169,268.4703,95.6777,218.6761,-0.0020854,-0.00033326,0.0,0 STARLINK-3604,1 51815U 22017AZ  22179.91667824 -.00033326  00000-0 -20854-2 0  9996,2 51815  53.2169 268.4703 0001225  95.6777 218.6761 15.08842523  1302,6917.873000000001,95.437,540.585,538.89,0.0
51815.0,STARLINK-3604,PAYLOAD,2022-06-29 14:00:01,15.08824822,0.0001262,53.2171,265.4788,91.7306,245.7935,0.0008205,0.00012789,0.0,0 STARLINK-3604,1 51815U 22017AZ  22180.58334491  .00012789  00000-0  82050-3 0  9997,2 51815  53.2171 265.4788 0001262  91.7306 245.7935 15.08824822  1307,6917.927,95.439,540.665,538.919,0.0
